#aV2024  6 29  0  0  0.00000000     288 DD+AD WGS84 FIT  NGA
## 2320 518400.00000000   300.00000000 60490 0.0000000000000
+   31     2  3  4  5  6  7  8  9 10 11 12 13 14 15 16 17 18
+         19 20 21 22 23 24 25 26 27 28 29 30 31 32  0  0  0
+          0  0  0  0  0  0  0  0  0  0  0  0  0  0  0  0  0
+          0  0  0  0  0  0  0  0  0  0  0  0  0  0  0  0  0
+          0  0  0  0  0  0  0  0  0  0  0  0  0  0  0  0  0
++         2  2  2  2  2  2  2  2  2  2  2  2  2  2  2  2  2
++         2  2  2  2  2  2  2  2  2  2  2  2  2  2  0  0  0
++         0  0  0  0  0  0  0  0  0  0  0  0  0  0  0  0  0
++         0  0  0  0  0  0  0  0  0  0  0  0  0  0  0  0  0
++         0  0  0  0  0  0  0  0  0  0  0  0  0  0  0  0  0
%c cc cc ccc ccc cccc cccc cccc cccc ccccc ccccc ccccc ccccc
%c cc cc ccc ccc cccc cccc cccc cccc ccccc ccccc ccccc ccccc
%f  0.0000000  0.000000000  0.00000000000  0.000000000000000
%f  0.0000000  0.000000000  0.00000000000  0.000000000000000
%i    0    0    0    0      0      0      0      0         0
%i    0    0    0    0      0      0      0      0         0
/*      NGA, ST. LOUIS,MO.                                  
/*   EPHEMERIS COMPUTED FROM 2 DAYS OF DATA                 
/*   EPOCHA v9 SMOOTHER                                     
/*   G2296 IERS2010 SATIGS SATAPC                           
*  2024  6 29 21 15  0.00000000
P  2 -14648.057099  21474.708793   5063.302754   -408.426391                    
V  2    176.474416  -6488.968887  31225.254425      0.072015                    
P  3 -13081.032835  12575.315760 -19513.739532    436.355164                    
V  3 -24369.626350  -1699.343124  15484.709385      0.172375                    
P  4  -5148.519198  18292.603010 -18482.575369    393.630054                    
V  4 -11881.678152 -20376.763529 -16974.387898      0.079403                    
P  5  24938.748958  -5525.114126   7250.639139   -178.049880                    
V  5   9470.497355   2078.106953 -30146.561699     -0.013335                    
P  6  11380.599358   9181.708927 -22107.228097    190.387583                    
V  6 -15164.316622  23707.107238   2137.675006     -0.219873                    
P  7  -2196.626280  22621.811582  13870.302724    -80.652611                    
V  7 -11075.605943  13111.338487 -24507.761633      0.088107                    
P  8 -12865.742641   8350.829291  21563.083198    252.715593                    
V  8 -14326.207180 -23692.425434   1043.977188      0.171836                    
P  9   5725.542407  23935.213279 -10002.273657    253.920462                    
V  9  -8538.057290  -9620.723442 -28195.173307      0.148209                    
P 10 -19101.800659 -10750.925991  15436.800828    -54.125884                    
V 10  19075.699295   -712.751955  23108.609364     -0.089865                    
P 11  18478.446007  -4488.253842 -18496.193317   -695.553956                    
V 11 -12001.565227  20302.646421 -16951.390512     -0.074613                    
P 12  16086.791149 -11208.343421 -18174.553030   -518.236561                    
V 12  22291.300614   3603.848101  17829.896043     -0.031578                    
P 13  15859.474296   1299.615447  21094.336478    661.310620                    
V 13   9004.182467  25673.502023  -8038.463969      0.025419                    
P 14  15447.743878  13214.128658  17245.179875    437.229274                    
V 14 -21848.207479    785.190721  18795.929219      0.090213                    
P 15  11708.260063 -10201.411721  21040.101920    175.629776                    
V 15  17198.029042  22105.646204   1306.909360      0.042181                    
P 16 -26405.282568     23.056158   4241.131626   -250.447403                    
V 16  -5429.477416  -3029.066081 -30886.066209      0.107154                    
P 17  13117.115528  22699.927112  -3248.449442    686.624167                    
V 17   -486.524877   5371.052375  31680.122439     -0.065869                    
P 18   2698.097220 -22192.335425  14191.794520   -631.008385                    
V 18  11343.456983 -14182.188625 -24554.394514     -0.044679                    
P 19  16378.836762  17327.291829 -12292.091341    503.459538                    
V 19   4156.696687  14708.117472  26247.716336      0.053996                    
P 20  26234.148668  -1905.342607  -2966.226472    373.294360                    
V 20  -3342.036688   3685.932676 -31410.546359     -0.004199                    
P 21 -16529.590332  17655.124526  10105.657822    112.194680                    
V 21   2682.783961 -12678.676556  28725.707916     -0.025389                    
P 22  21308.484478  10732.589683  11773.488347    -33.570981                    
V 22 -14605.378232    810.440007  26929.852611     -0.047379                    
P 23  -7250.996591 -14249.103604  21270.027265    262.178190                    
V 23  26853.807917   -579.031002   8577.231371      0.090630                    
P 24  14852.306934 -20852.242759   5787.218032   -480.707036                    
V 24     72.674490   8926.514858  30214.683909     -0.020890                    
P 25   4695.629973 -15326.257020 -21483.850554    497.978559                    
V 25  26564.972933    808.171601   5570.221529      0.004540                    
P 26 -24680.647154  -5304.284002  -8985.160067    128.618400                    
V 26  10948.012454  -3709.567982 -27995.191068     -0.065618                    
P 27 -17613.917010  -3947.229968  19332.786239    -29.802611                    
V 27 -11193.554337 -22425.433368 -14147.191521     -0.011188                    
P 28 -10594.061665 -11635.068092 -21406.932929   -310.427296                    
V 28  13844.226254 -23370.214775   5852.900177     -0.163466                    
P 29  -1165.765205 -23369.993218 -12496.983853   -591.944382                    
V 29   8439.069239  13546.461055 -26343.741425      0.017970                    
P 30   6970.205751  16475.382683  19702.891192   -366.092899                    
V 30 -14276.841335  20416.885620 -12381.933859      0.063559                    
P 31 -17209.837708   -152.688632 -20543.438425   -227.106241                    
V 31  13104.154992 -21918.186196 -10544.838240      0.002326                    
P 32 -15722.893100 -20872.499048  -5100.422157   -614.438144                    
V 32  -1035.939562  -7106.611814  30780.456243      0.015746                    
EOF
